[{"OBJECT_NAME":"BRO-12","OBJECT_ID":"2024-043L","EPOCH":"2026-03-09T22:37:32.158848","MEAN_MOTION":14.96535251,"ECCENTRICITY":0.00077366,"INCLINATION":97.831,"RA_OF_ASC_NODE":199.8995,"ARG_OF_PERICENTER":330.9773,"MEAN_ANOMALY":29.1017,"EPHEMERIS_TYPE":0,"CLASSIFICATION_TYPE":"U","NORAD_CAT_ID":59108,"ELEMENT_SET_NO":999,"REV_AT_EPOCH":10979,"BSTAR":0.00015413906,"MEAN_MOTION_DOT":1.694e-5,"MEAN_MOTION_DDOT":0},{"OBJECT_NAME":"STARLINK-34380","OBJECT_ID":"2025-123S","EPOCH":"2026-03-09T22:00:01.999584","MEAN_MOTION":14.98341087,"ECCENTRICITY":0.00032797,"INCLINATION":70.0011,"RA_OF_ASC_NODE":194.0391,"ARG_OF_PERICENTER":273.6961,"MEAN_ANOMALY":262.3849,"EPHEMERIS_TYPE":0,"CLASSIFICATION_TYPE":"U","NORAD_CAT_ID":64307,"ELEMENT_SET_NO":999,"REV_AT_EPOCH":561,"BSTAR":-0.0023037303,"MEAN_MOTION_DOT":-0.00027482,"MEAN_MOTION_DDOT":0}]
